FLOCK 4H-14             
1 66717U 25276BD  26095.74611016  .00009243  00000+0  42970-3 0  9999
2 66717  97.4238 170.7246 0001714 134.2274 225.9102 15.20190696 18688
FLOCK 4H-15             
1 66718U 25276BE  26095.72532742  .00008036  00000+0  38970-3 0  9990
2 66718  97.4249 170.4652 0002779 263.5346  96.5572 15.18768023 19414
FLOCK 4H-16             
1 66719U 25276BF  26095.64726857  .00008197  00000+0  39532-3 0  9997
2 66719  97.4264 170.4436 0003008 246.2067 113.8852 15.18951833 19402
FLOCK 4H-18             
1 66721U 25276BH  26095.71688291  .00007981  00000+0  38511-3 0  9993
2 66721  97.4209 170.4066 0002309 281.1349  78.9625 15.18941755 19419
FLOCK 4H-19             
1 66722U 25276BJ  26095.73404187  .00007592  00000+0  35274-3 0  9997
2 66722  97.4209 170.6930 0002426 144.4364 215.7033 15.20272700 18727
FLOCK 4H-20             
1 66723U 25276BK  26095.67788061  .00011242  00000+0  52002-3 0  9992
2 66723  97.4246 170.6785 0002960 165.7873 194.3446 15.20308250 18675
FLOCK 4H-21             
1 66724U 25276BL  26095.75000698  .00008153  00000+0  38141-3 0  9990
2 66724  97.4213 170.6749 0002786 164.0284 196.1040 15.20012247 18683
FLOCK 4H-22             
1 66725U 25276BM  26095.75434189  .00009755  00000+0  46508-3 0  9992
2 66725  97.4199 170.4959 0001239 282.2418  77.8678 15.19301441 19422
FLOCK 4H-23             
1 66726U 25276BN  26095.64892641  .00008092  00000+0  39071-3 0  9992
2 66726  97.4265 170.4478 0003244 235.0927 125.0003 15.18915253 19409
FLOCK 4H-24             
1 66727U 25276BP  26095.77204969  .00008492  00000+0  40874-3 0  9994
2 66727  97.4261 170.5878 0002692 256.6676 103.4258 15.19011823 19422
FLOCK 4H-25             
1 66728U 25276BQ  26095.76202943  .00008322  00000+0  39072-3 0  9994
2 66728  97.4223 170.6780 0001812 121.2329 238.9084 15.19880529 18718
FLOCK 4H-26             
1 66729U 25276BR  26095.72297036  .00007730  00000+0  37477-3 0  9997
2 66729  97.4218 170.4200 0003363 254.3100 105.7764 15.18784319 19419
FLOCK 4H-27             
1 66730U 25276BS  26095.71195241  .00006886  00000+0  32628-3 0  9997
2 66730  97.4196 170.5497 0001467 129.4522 230.6842 15.19626803 19428
FLOCK 4H-28             
1 66731U 25276BT  26095.72217750  .00008108  00000+0  39246-3 0  9991
2 66731  97.4207 170.4013 0002980 256.2525 103.8378 15.18829017 19413
FLOCK 4H-29             
1 66732U 25276BU  26095.71169374  .00007795  00000+0  37645-3 0  9991
2 66732  97.4198 170.3982 0001811 273.7960  86.3067 15.18923624 19415
FLOCK 4H-30             
1 66733U 25276BV  26095.44669737  .00008723  00000+0  41991-3 0  9991
2 66733  97.4260 170.2488 0002878 257.3906 102.7007 15.18995123 19373
FLOCK 4H-31             
1 66734U 25276BW  26095.71823857  .00007633  00000+0  36966-3 0  9992
2 66734  97.4198 170.3883 0002239 266.9060  93.1918 15.18830633 19415
