[{"OBJECT_NAME":"FLOCK 4H-14","OBJECT_ID":"2025-276BD","EPOCH":"2026-04-05T17:54:23.917824","MEAN_MOTION":15.20190696,"ECCENTRICITY":0.0001714,"INCLINATION":97.4238,"RA_OF_ASC_NODE":170.7246,"ARG_OF_PERICENTER":134.2274,"MEAN_ANOMALY":225.9102,"EPHEMERIS_TYPE":0,"CLASSIFICATION_TYPE":"U","NORAD_CAT_ID":66717,"ELEMENT_SET_NO":999,"REV_AT_EPOCH":1868,"BSTAR":0.0004297,"MEAN_MOTION_DOT":9.243e-5,"MEAN_MOTION_DDOT":0},{"OBJECT_NAME":"FLOCK 4H-15","OBJECT_ID":"2025-276BE","EPOCH":"2026-04-05T17:24:28.289088","MEAN_MOTION":15.18768023,"ECCENTRICITY":0.0002779,"INCLINATION":97.4249,"RA_OF_ASC_NODE":170.4652,"ARG_OF_PERICENTER":263.5346,"MEAN_ANOMALY":96.5572,"EPHEMERIS_TYPE":0,"CLASSIFICATION_TYPE":"U","NORAD_CAT_ID":66718,"ELEMENT_SET_NO":999,"REV_AT_EPOCH":1941,"BSTAR":0.0003897,"MEAN_MOTION_DOT":8.036e-5,"MEAN_MOTION_DDOT":0},{"OBJECT_NAME":"FLOCK 4H-16","OBJECT_ID":"2025-276BF","EPOCH":"2026-04-05T15:32:04.004448","MEAN_MOTION":15.18951833,"ECCENTRICITY":0.0003008,"INCLINATION":97.4264,"RA_OF_ASC_NODE":170.4436,"ARG_OF_PERICENTER":246.2067,"MEAN_ANOMALY":113.8852,"EPHEMERIS_TYPE":0,"CLASSIFICATION_TYPE":"U","NORAD_CAT_ID":66719,"ELEMENT_SET_NO":999,"REV_AT_EPOCH":1940,"BSTAR":0.00039532,"MEAN_MOTION_DOT":8.197e-5,"MEAN_MOTION_DDOT":0},{"OBJECT_NAME":"FLOCK 4H-18","OBJECT_ID":"2025-276BH","EPOCH":"2026-04-05T17:12:18.683424","MEAN_MOTION":15.18941755,"ECCENTRICITY":0.0002309,"INCLINATION":97.4209,"RA_OF_ASC_NODE":170.4066,"ARG_OF_PERICENTER":281.1349,"MEAN_ANOMALY":78.9625,"EPHEMERIS_TYPE":0,"CLASSIFICATION_TYPE":"U","NORAD_CAT_ID":66721,"ELEMENT_SET_NO":999,"REV_AT_EPOCH":1941,"BSTAR":0.00038511,"MEAN_MOTION_DOT":7.981e-5,"MEAN_MOTION_DDOT":0},{"OBJECT_NAME":"FLOCK 4H-19","OBJECT_ID":"2025-276BJ","EPOCH":"2026-04-05T17:37:01.217568","MEAN_MOTION":15.202727,"ECCENTRICITY":0.0002426,"INCLINATION":97.4209,"RA_OF_ASC_NODE":170.693,"ARG_OF_PERICENTER":144.4364,"MEAN_ANOMALY":215.7033,"EPHEMERIS_TYPE":0,"CLASSIFICATION_TYPE":"U","NORAD_CAT_ID":66722,"ELEMENT_SET_NO":999,"REV_AT_EPOCH":1872,"BSTAR":0.00035274,"MEAN_MOTION_DOT":7.592e-5,"MEAN_MOTION_DDOT":0},{"OBJECT_NAME":"FLOCK 4H-20","OBJECT_ID":"2025-276BK","EPOCH":"2026-04-05T16:16:08.884704","MEAN_MOTION":15.2030825,"ECCENTRICITY":0.000296,"INCLINATION":97.4246,"RA_OF_ASC_NODE":170.6785,"ARG_OF_PERICENTER":165.7873,"MEAN_ANOMALY":194.3446,"EPHEMERIS_TYPE":0,"CLASSIFICATION_TYPE":"U","NORAD_CAT_ID":66723,"ELEMENT_SET_NO":999,"REV_AT_EPOCH":1867,"BSTAR":0.00052002,"MEAN_MOTION_DOT":0.00011242,"MEAN_MOTION_DDOT":0},{"OBJECT_NAME":"FLOCK 4H-21","OBJECT_ID":"2025-276BL","EPOCH":"2026-04-05T18:00:00.603072","MEAN_MOTION":15.20012247,"ECCENTRICITY":0.0002786,"INCLINATION":97.4213,"RA_OF_ASC_NODE":170.6749,"ARG_OF_PERICENTER":164.0284,"MEAN_ANOMALY":196.104,"EPHEMERIS_TYPE":0,"CLASSIFICATION_TYPE":"U","NORAD_CAT_ID":66724,"ELEMENT_SET_NO":999,"REV_AT_EPOCH":1868,"BSTAR":0.00038141,"MEAN_MOTION_DOT":8.153e-5,"MEAN_MOTION_DDOT":0},{"OBJECT_NAME":"FLOCK 4H-22","OBJECT_ID":"2025-276BM","EPOCH":"2026-04-05T18:06:15.139296","MEAN_MOTION":15.19301441,"ECCENTRICITY":0.0001239,"INCLINATION":97.4199,"RA_OF_ASC_NODE":170.4959,"ARG_OF_PERICENTER":282.2418,"MEAN_ANOMALY":77.8678,"EPHEMERIS_TYPE":0,"CLASSIFICATION_TYPE":"U","NORAD_CAT_ID":66725,"ELEMENT_SET_NO":999,"REV_AT_EPOCH":1942,"BSTAR":0.00046508,"MEAN_MOTION_DOT":9.755e-5,"MEAN_MOTION_DDOT":0},{"OBJECT_NAME":"FLOCK 4H-23","OBJECT_ID":"2025-276BN","EPOCH":"2026-04-05T15:34:27.241824","MEAN_MOTION":15.18915253,"ECCENTRICITY":0.0003244,"INCLINATION":97.4265,"RA_OF_ASC_NODE":170.4478,"ARG_OF_PERICENTER":235.0927,"MEAN_ANOMALY":125.0003,"EPHEMERIS_TYPE":0,"CLASSIFICATION_TYPE":"U","NORAD_CAT_ID":66726,"ELEMENT_SET_NO":999,"REV_AT_EPOCH":1940,"BSTAR":0.00039071,"MEAN_MOTION_DOT":8.092e-5,"MEAN_MOTION_DDOT":0},{"OBJECT_NAME":"FLOCK 4H-24","OBJECT_ID":"2025-276BP","EPOCH":"2026-04-05T18:31:45.093216","MEAN_MOTION":15.19011823,"ECCENTRICITY":0.0002692,"INCLINATION":97.4261,"RA_OF_ASC_NODE":170.5878,"ARG_OF_PERICENTER":256.6676,"MEAN_ANOMALY":103.4258,"EPHEMERIS_TYPE":0,"CLASSIFICATION_TYPE":"U","NORAD_CAT_ID":66727,"ELEMENT_SET_NO":999,"REV_AT_EPOCH":1942,"BSTAR":0.00040874,"MEAN_MOTION_DOT":8.492e-5,"MEAN_MOTION_DDOT":0},{"OBJECT_NAME":"FLOCK 4H-25","OBJECT_ID":"2025-276BQ","EPOCH":"2026-04-05T18:17:19.342752","MEAN_MOTION":15.19880529,"ECCENTRICITY":0.0001812,"INCLINATION":97.4223,"RA_OF_ASC_NODE":170.678,"ARG_OF_PERICENTER":121.2329,"MEAN_ANOMALY":238.9084,"EPHEMERIS_TYPE":0,"CLASSIFICATION_TYPE":"U","NORAD_CAT_ID":66728,"ELEMENT_SET_NO":999,"REV_AT_EPOCH":1871,"BSTAR":0.00039072,"MEAN_MOTION_DOT":8.322e-5,"MEAN_MOTION_DDOT":0},{"OBJECT_NAME":"FLOCK 4H-26","OBJECT_ID":"2025-276BR","EPOCH":"2026-04-05T17:21:04.639104","MEAN_MOTION":15.18784319,"ECCENTRICITY":0.0003363,"INCLINATION":97.4218,"RA_OF_ASC_NODE":170.42,"ARG_OF_PERICENTER":254.31,"MEAN_ANOMALY":105.7764,"EPHEMERIS_TYPE":0,"CLASSIFICATION_TYPE":"U","NORAD_CAT_ID":66729,"ELEMENT_SET_NO":999,"REV_AT_EPOCH":1941,"BSTAR":0.00037477,"MEAN_MOTION_DOT":7.73e-5,"MEAN_MOTION_DDOT":0},{"OBJECT_NAME":"FLOCK 4H-27","OBJECT_ID":"2025-276BS","EPOCH":"2026-04-05T17:05:12.688224","MEAN_MOTION":15.19626803,"ECCENTRICITY":0.0001467,"INCLINATION":97.4196,"RA_OF_ASC_NODE":170.5497,"ARG_OF_PERICENTER":129.4522,"MEAN_ANOMALY":230.6842,"EPHEMERIS_TYPE":0,"CLASSIFICATION_TYPE":"U","NORAD_CAT_ID":66730,"ELEMENT_SET_NO":999,"REV_AT_EPOCH":1942,"BSTAR":0.00032628,"MEAN_MOTION_DOT":6.886e-5,"MEAN_MOTION_DDOT":0},{"OBJECT_NAME":"FLOCK 4H-28","OBJECT_ID":"2025-276BT","EPOCH":"2026-04-05T17:19:56.136000","MEAN_MOTION":15.18829017,"ECCENTRICITY":0.000298,"INCLINATION":97.4207,"RA_OF_ASC_NODE":170.4013,"ARG_OF_PERICENTER":256.2525,"MEAN_ANOMALY":103.8378,"EPHEMERIS_TYPE":0,"CLASSIFICATION_TYPE":"U","NORAD_CAT_ID":66731,"ELEMENT_SET_NO":999,"REV_AT_EPOCH":1941,"BSTAR":0.00039246,"MEAN_MOTION_DOT":8.108e-5,"MEAN_MOTION_DDOT":0},{"OBJECT_NAME":"FLOCK 4H-29","OBJECT_ID":"2025-276BU","EPOCH":"2026-04-05T17:04:50.339136","MEAN_MOTION":15.18923624,"ECCENTRICITY":0.0001811,"INCLINATION":97.4198,"RA_OF_ASC_NODE":170.3982,"ARG_OF_PERICENTER":273.796,"MEAN_ANOMALY":86.3067,"EPHEMERIS_TYPE":0,"CLASSIFICATION_TYPE":"U","NORAD_CAT_ID":66732,"ELEMENT_SET_NO":999,"REV_AT_EPOCH":1941,"BSTAR":0.00037645,"MEAN_MOTION_DOT":7.795e-5,"MEAN_MOTION_DDOT":0},{"OBJECT_NAME":"FLOCK 4H-30","OBJECT_ID":"2025-276BV","EPOCH":"2026-04-05T10:43:14.652768","MEAN_MOTION":15.18995123,"ECCENTRICITY":0.00028781,"INCLINATION":97.426,"RA_OF_ASC_NODE":170.2488,"ARG_OF_PERICENTER":257.3906,"MEAN_ANOMALY":102.7007,"EPHEMERIS_TYPE":0,"CLASSIFICATION_TYPE":"U","NORAD_CAT_ID":66733,"ELEMENT_SET_NO":999,"REV_AT_EPOCH":1937,"BSTAR":0.00041991479,"MEAN_MOTION_DOT":8.723e-5,"MEAN_MOTION_DDOT":0},{"OBJECT_NAME":"FLOCK 4H-31","OBJECT_ID":"2025-276BW","EPOCH":"2026-04-05T17:14:15.812448","MEAN_MOTION":15.18830633,"ECCENTRICITY":0.0002239,"INCLINATION":97.4198,"RA_OF_ASC_NODE":170.3883,"ARG_OF_PERICENTER":266.906,"MEAN_ANOMALY":93.1918,"EPHEMERIS_TYPE":0,"CLASSIFICATION_TYPE":"U","NORAD_CAT_ID":66734,"ELEMENT_SET_NO":999,"REV_AT_EPOCH":1941,"BSTAR":0.00036966,"MEAN_MOTION_DOT":7.633e-5,"MEAN_MOTION_DDOT":0}]
